STARLINK-34661          
1 64927U 25157Z   25212.75002315 -.01156883  43567-3 -21213-2 0  9996
2 64927  53.1554 309.0916 0000562  48.6322  42.8256 16.00661138  1784
STARLINK-34248          
1 64928U 25157AA  25212.75002315 -.01250766  48164-3 -28627-2 0  9996
2 64928  53.1551 309.1731 0000588  53.7811 358.0913 15.96738244  2056
STARLINK-34290          
1 64929U 25157AB  25212.75002315 -.01258222  48736-3 -28647-2 0  9999
2 64929  53.1550 309.1699 0000540  53.3023   0.0473 15.96835069  2056
STARLINK-34220          
1 64930U 25157AC  25212.75002315 -.01161232  43896-3 -21215-2 0  9991
2 64930  53.1553 309.0894 0000537  42.5352  50.0030 16.00725321  1944
STARLINK-34715          
1 64931U 25157AD  25212.75002315 -.01265084  49275-3 -28639-2 0  9996
2 64931  53.1550 309.1667 0000542  52.3448   2.5804 15.96940222  2059
STARLINK-34705          
1 64932U 25158A   25213.58335648 -.01410015  00000+0 -57511-2 0  9994
2 64932  97.5985  74.6602 0001693  77.6760  72.6430 15.88795540  2080
STARLINK-34737          
1 64933U 25158B   25213.58335648 -.01419907  00000+0 -57754-2 0  9993
2 64933  97.5984  74.6606 0001646  77.0210  74.6674 15.88871627  2089
STARLINK-34775          
1 64934U 25158C   25213.58335648 -.01432562  00000+0 -58121-2 0  9995
2 64934  97.5984  74.6613 0001730  72.7247  80.6821 15.88946908  2080
STARLINK-34726          
1 64935U 25158D   25213.58335648 -.01436049  00000+0 -58077-2 0  9990
2 64935  97.5982  74.6617 0001701  71.2005  83.6438 15.89017716  2025
STARLINK-34529          
1 64936U 25158E   25213.58335648 -.01452422  00000+0 -58601-2 0  9997
2 64936  97.5985  74.6630 0001713  74.5617  81.9747 15.89098019  2087
STARLINK-34743          
1 64937U 25158F   25213.58335648 -.01462821  00000+0 -58856-2 0  9994
2 64937  97.5986  74.6637 0001859  76.2889  81.8019 15.89172710  2089
STARLINK-34730          
1 64938U 25158G   25213.58335648 -.01472277  00000+0 -59072-2 0  9992
2 64938  97.5987  74.6642 0001779  74.2630  85.4052 15.89248444  2029
STARLINK-34714          
1 64939U 25158H   25213.58335648 -.01689599  77475-3 -59208-2 0  9995
2 64939  97.5985  74.6650 0001732  71.3145  90.0047 15.89322107  1861
STARLINK-34755          
1 64940U 25158J   25213.58335648 -.01712697  79515-3 -59785-2 0  9990
2 64940  97.5988  74.6656 0001691  74.1523  88.7723 15.89403259  2029
STARLINK-34740          
1 64941U 25158K   25213.58335648 -.01718083  80035-3 -59764-2 0  9992
2 64941  97.5986  74.6663 0001717  71.3523  93.1830 15.89473918  2022
STARLINK-34742          
1 64942U 25158L   25213.58335648 -.01738974  81917-3 -60258-2 0  9994
2 64942  97.5988  74.6671 0001690  74.1534  92.0045 15.89554059  2085
STARLINK-34719          
1 64943U 25158M   25213.58335648 -.01749722  82921-3 -60410-2 0  9994
2 64943  97.5989  74.6681 0001690  70.0462  97.6511 15.89628417  2082
STARLINK-34373          
1 64944U 25158N   25213.58335648 -.01769119  84703-3 -60849-2 0  9993
2 64944  97.5987  74.6684 0001707  82.0504  87.2057 15.89706676  2021
STARLINK-34758          
1 64945U 25158P   25213.58335648 -.01788453  86500-3 -61279-2 0  9991
2 64945  97.5988  74.6691 0001682  81.8179  89.1576 15.89785822  2025
STARLINK-34753          
1 64946U 25158Q   25213.58335648 -.01784964  86242-3 -60959-2 0  9992
2 64946  97.5988  74.6697 0001705  74.5510  97.8882 15.89850831  2025
STARLINK-34747          
1 64947U 25158R   25213.58335648 -.01815048  89043-3 -61734-2 0  9995
2 64947  97.5990  74.6705 0001658  76.0647  98.0542 15.89936359  2086
STARLINK-34630          
1 64948U 25158S   25213.58335648 -.01822302  89773-3 -61753-2 0  9998
2 64948  97.5988  74.6711 0001702  72.4468 103.3132 15.90010552  2021
STARLINK-34689          
1 64949U 25158T   25213.58335648 -.01845942  92029-3 -62310-2 0  9992
2 64949  97.5991  74.6721 0001849  81.2113  96.0999 15.90091037  2086
STARLINK-34586          
1 64950U 25158U   25213.58335648 -.01853291  92778-3 -62344-2 0  9998
2 64950  97.5990  74.6726 0001589  81.6193  97.2576 15.90160994  2022
STARLINK-34738          
1 64951U 25158V   25213.58335648 -.01867998  94233-3 -62591-2 0  9990
2 64951  97.5992  74.6733 0001630  78.9328 101.6041 15.90241306  2023
STARLINK-34744          
1 64952U 25158W   25213.58335648 -.01906711  98065-3 -63409-2 0  9994
2 64952  97.5991  74.6748 0001657  80.6506 103.0924 15.90395618  2028
STARLINK-34701          
1 64953U 25158X   25213.58335648 -.01879651  95403-3 -62754-2 0  9992
2 64953  97.5993  74.6743 0001639  77.7683 104.3175 15.90314638  2024
STARLINK-34761          
1 64954U 25158Y   25213.58335648 -.01924858  99899-3 -63761-2 0  9995
2 64954  97.5995  74.6758 0001717  81.3453 104.1068 15.90475744  2021
STARLINK-34732          
1 64955U 25158Z   25213.58335648 -.01934793  10094-2 -63852-2 0  9995
2 64955  97.5996  74.6766 0001644  82.9759 104.1383 15.90550938  2026
HULIANWANG DIGUI 5A     
1 64956U 25159A   25212.99957972  .00000132  00000+0  13408-3 0  9995
2 64956  86.4949  31.3199 0008569 205.0860 154.9884 13.68676493   616
HULIANWANG DIGUI 5B     
1 64957U 25159B   25212.99925578  .00000023  00000+0  73890-5 0  9995
2 64957  86.4969  31.3224 0008124 203.7978 156.2807 13.68769520   614
HULIANWANG DIGUI 5C     
1 64958U 25159C   25213.51030752  .00000160  00000+0  16676-3 0  9995
2 64958  86.4912  31.1266 0007820 197.6552 162.4337 13.68945682   687
HULIANWANG DIGUI 5D     
1 64959U 25159D   25213.50995353  .00000118  00000+0  11782-3 0  9998
2 64959  86.4969  31.1353 0007280 191.4887 168.6107 13.69044807   683
HULIANWANG DIGUI 5E     
1 64960U 25159E   25213.50951499  .00000062  00000+0  52361-4 0  9990
2 64960  86.4941  31.1314 0007030 190.8804 169.2205 13.69164765   689
CZ-6A R/B               
1 64961U 25159F   25213.49186144  .00000016  00000+0 -18941-5 0  9993
2 64961  86.5045  31.0696 0104736 100.2017 261.0988 13.94023454   686
KUNPENG-03              
1 64962U 25160A   25213.24439580  .00016250  00000+0  73501-3 0  9991
2 64962  97.3988 287.8603 0010492 256.9734 103.0330 15.20946931   469
SQX-1 R/B               
1 64963U 25160B   25213.16740208  .00059316  31057-5  35800-3 0  9997
2 64963  97.4407 287.9794 0169219 343.8227  15.7664 15.60345423   477
HULIANWANG DIGUI 6A     
1 65043U 25162A   25213.50327239 -.00000065  00000+0  52894-4 0  9991
2 65043  50.0017   6.3290 0008140 275.7451  84.2526 14.06151100   306
HULIANWANG DIGUI 6B     
1 65044U 25162B   25213.36106630 -.00005864  00000+0 -34533-2 0  9997
2 65044  50.0048   6.9077 0006957 270.7712  89.2396 14.06199315   297
HULIANWANG DIGUI 6C     
1 65045U 25162C   25213.50304919 -.00000132  00000+0  12266-4 0  9997
2 65045  50.0006   6.3262 0007369 277.7413  82.2656 14.06297851   314
HULIANWANG DIGUI 6D     
1 65046U 25162D   25213.50294198 -.00000681  00000+0 -31859-3 0  9993
2 65046  50.0025   6.3274 0006152 275.8579  84.1625 14.06370711   314
HULIANWANG DIGUI 6E     
1 65047U 25162E   25213.59556519  .00000014  00000+0  10000-3 0  9994
2 65047  50.0036   5.9479 0007959 284.5720 185.1833 14.06427092   329
HULIANWANG DIGUI 6F     
1 65048U 25162F   25213.50265494 -.00000588  00000+0 -26137-3 0  9991
2 65048  50.0083   6.3308 0005824 283.7994  76.2263 14.06558515   312
HULIANWANG DIGUI 6G     
1 65049U 25162G   25213.50259389 -.00000340  00000+0 -11275-3 0  9991
2 65049  50.0100   6.3320 0006992 288.5310  71.4836 14.06596102   316
HULIANWANG DIGUI 6H     
1 65050U 25162H   25213.50243685 -.00000438  00000+0 -17076-3 0  9998
2 65050  50.0067   6.3283 0007230 293.3493  66.6652 14.06697204   317
HULIANWANG DIGUI 6J     
1 65051U 25162J   25213.57341287 -.00000420  00000+0 -16017-3 0  9998
2 65051  50.0076   6.0383 0005667 291.5094  68.5207 14.06741874   326
CZ-8A R/B               
1 65052U 25162K   25213.60650654 -.00001244  00000+0 -37941-3 0  9998
2 65052  50.0049   5.5540 0118872  91.2145 270.2393 14.30549757   333
NISAR                   
1 65053U 25163A   25213.55768810  .00000334  00000+0  10636-3 0  9997
2 65053  98.4438  40.4242 0012255 264.9124  95.0669 14.45882682   290
GSLV R/B                
1 65054U 25163B   25213.55545563  .00000178  00000+0  60644-4 0  9997
2 65054  98.4381  40.4218 0010934 303.0738  56.9404 14.47479724   293
PRSS-1                  
1 65055U 25164A   25213.58661855  .00005281  00000+0  37483-3 0  9999
2 65055  41.1307 289.6571 0006214 248.8537 111.1612 15.05268356   203
CREW DRAGON 11          
1 65077U 25166A   25213.66952387 -.00003803  12024-4  00000+0 0  9991
2 65077  51.6451  81.7218 0016638   6.7914  89.9538 16.26231033    06
